{"type":"FeatureCollection","meta":{"generated_at":"2026-03-30T05:07:30Z","record_count":5,"source_files":["registry_cases.csv","literature_cases.csv","community_verified.csv"]},"features":[{"type":"Feature","geometry":{"type":"Point","coordinates":[76.0856,29.0588]},"properties":{"record_id":"LIT-PMID-41710678","source_type":"NCBI Literature","source_name":"PubMed/PMC","pmid":"41710678","pmcid":"PMC11320099","title":"Malignant Pleural Mesothelioma in an Asbestos Industry Worker: A Posthumous Case Report from Haryana, India.","hospital":"","city":"","state":"Haryana","icd10":"Asbestos","meso_type":"All","case_count":2,"year_start":2025,"year_end":2025,"latitude":"","longitude":"","catchment_km":90,"journal":"Indian journal of occupational and environmental medicine","affiliation":"Department of Labour, Govt. of Haryana Panipat, Haryana, India","screen_score":"11","screen_reasons":"mesothelioma-term,india-signal,primary-study-cue,india-location,cohort-count","screen_status":"promote","provenance_url":"https://pmc.ncbi.nlm.nih.gov/articles/PMC11320099/","notes":"doi:10.4103/ijoem.ijoem_355_24"}},{"type":"Feature","geometry":{"type":"Point","coordinates":[76.2711,10.8505]},"properties":{"record_id":"LIT-PMID-38409016","source_type":"NCBI Literature","source_name":"PubMed/PMC","pmid":"38409016","pmcid":"PMC5740834","title":"Testicular mesothelioma disguised as hydrocele: a case report.","hospital":"VPS Lakeshore Hospital","city":"","state":"Kerala","icd10":"Asbestos","meso_type":"All","case_count":1,"year_start":2024,"year_end":2024,"latitude":"","longitude":"","catchment_km":90,"journal":"Journal of medical case reports","affiliation":"VPS Lakeshore Hospital & Research Centre, Kochi, Kerala, India","screen_score":"13","screen_reasons":"mesothelioma-term,india-signal,primary-study-cue,hospital-detected,india-location,cohort-count","screen_status":"promote","provenance_url":"https://pmc.ncbi.nlm.nih.gov/articles/PMC5740834/","notes":"doi:10.3390/uro2040031"}},{"type":"Feature","geometry":{"type":"Point","coordinates":[80.9462,26.8467]},"properties":{"record_id":"LIT-PMID-22918072","source_type":"NCBI Literature","source_name":"PubMed/PMC","pmid":"22918072","pmcid":"","title":"A study to evaluate asbestos fiber burden in lung and pleural malignancies.","hospital":"","city":"Lucknow","state":"Uttar Pradesh","icd10":"Asbestos","meso_type":"All","case_count":0,"year_start":2010,"year_end":2010,"latitude":"","longitude":"","catchment_km":90,"journal":"Indian journal of medical sciences","affiliation":"Department of Pulmonary Medicine, CSMMU, Lucknow, UP, India","screen_score":"9","screen_reasons":"mesothelioma-term,india-signal,primary-study-cue,india-location","screen_status":"promote","provenance_url":"https://pubmed.ncbi.nlm.nih.gov/22918072/","notes":""}},{"type":"Feature","geometry":{"type":"Point","coordinates":[87.855,22.9868]},"properties":{"record_id":"LIT-PMID-17900765","source_type":"NCBI Literature","source_name":"PubMed/PMC","pmid":"17900765","pmcid":"","title":"Assessment of alpha activity of building materials commonly used in West Bengal, India.","hospital":"Archaeological Sciences, Jadavpur University","city":"Kolkata","state":"West Bengal","icd10":"Asbestos","meso_type":"All","case_count":0,"year_start":2008,"year_end":2008,"latitude":"","longitude":"","catchment_km":90,"journal":"Journal of environmental radioactivity","affiliation":"School of Studies in Environmental Radiation and Archaeological Sciences, Jadavpur University, Kolkata 700 032, India","screen_score":"11","screen_reasons":"mesothelioma-term,india-signal,primary-study-cue,hospital-detected,india-location","screen_status":"promote","provenance_url":"https://pubmed.ncbi.nlm.nih.gov/17900765/","notes":"doi:10.1016/j.jenvrad.2007.08.002"}},{"type":"Feature","geometry":{"type":"Point","coordinates":[74.2179,27.0238]},"properties":{"record_id":"LIT-PMID-17337034","source_type":"NCBI Literature","source_name":"PubMed/PMC","pmid":"17337034","pmcid":"","title":"Monitoring and identification of airborne asbestos in unorganized sectors, India.","hospital":"Industrial Toxicology Research Centre","city":"","state":"Rajasthan","icd10":"Asbestos","meso_type":"All","case_count":0,"year_start":2007,"year_end":2007,"latitude":"","longitude":"","catchment_km":90,"journal":"Chemosphere","affiliation":"Industrial Toxicology Research Centre, Mahatma Gandhi Marg, Post Box No. 80, Lucknow 226 001, India","screen_score":"11","screen_reasons":"mesothelioma-term,india-signal,primary-study-cue,hospital-detected,india-location","screen_status":"promote","provenance_url":"https://pubmed.ncbi.nlm.nih.gov/17337034/","notes":"doi:10.1016/j.chemosphere.2007.01.040"}}]}