{"type":"FeatureCollection","meta":{"generated_at":"2026-03-09T05:42:38Z","record_count":98,"source_files":["registry_cases.csv","literature_cases.csv","community_verified.csv"]},"features":[{"type":"Feature","geometry":{"type":"Point","coordinates":[79.74,15.9129]},"properties":{"record_id":"REG-EXTRACT-001","source_type":"Hospital Registry","source_name":"NCRP Supplementary Table S1","study_or_registry":"iutld_pha_24.0003 supplementary table","hospital":"Homi Bhabha Cancer Hospital & Research Centre","city":"Visakhapatnam","state":"Andhra Pradesh","icd10":"C45","meso_type":"All","case_count":9,"year_start":2012,"year_end":2023,"latitude":"","longitude":"","catchment_km":120,"provenance_url":"https://doi.org/10.5588/pha.24.0003","notes":"Auto-extracted row, verify manually before publication"}},{"type":"Feature","geometry":{"type":"Point","coordinates":[79.74,15.9129]},"properties":{"record_id":"REG-EXTRACT-002","source_type":"Hospital Registry","source_name":"NCRP Supplementary Table S1","study_or_registry":"iutld_pha_24.0003 supplementary table","hospital":"Sri Venkateswara Institute of Medical Sciences","city":"Tirupati","state":"Andhra Pradesh","icd10":"C45","meso_type":"All","case_count":12,"year_start":2012,"year_end":2023,"latitude":"","longitude":"","catchment_km":120,"provenance_url":"https://doi.org/10.5588/pha.24.0003","notes":"Auto-extracted row, verify manually before publication"}},{"type":"Feature","geometry":{"type":"Point","coordinates":[79.74,15.9129]},"properties":{"record_id":"REG-EXTRACT-003","source_type":"Hospital Registry","source_name":"NCRP Supplementary Table S1","study_or_registry":"iutld_pha_24.0003 supplementary table","hospital":"Govt. Hospital for Chest and Communicable Diseases","city":"Guntur","state":"Andhra Pradesh","icd10":"C45","meso_type":"All","case_count":0,"year_start":2012,"year_end":2023,"latitude":"","longitude":"","catchment_km":120,"provenance_url":"https://doi.org/10.5588/pha.24.0003","notes":"Auto-extracted row, verify manually before publication"}},{"type":"Feature","geometry":{"type":"Point","coordinates":[92.9376,26.2006]},"properties":{"record_id":"REG-EXTRACT-004","source_type":"Hospital Registry","source_name":"NCRP Supplementary Table S1","study_or_registry":"iutld_pha_24.0003 supplementary table","hospital":"Dr Bhubaneshwar Barooah Cancer Institute Guwahati","city":"","state":"Assam","icd10":"C45","meso_type":"All","case_count":9,"year_start":2012,"year_end":2023,"latitude":"","longitude":"","catchment_km":120,"provenance_url":"https://doi.org/10.5588/pha.24.0003","notes":"Auto-extracted row, verify manually before publication"}},{"type":"Feature","geometry":{"type":"Point","coordinates":[85.3131,25.0961]},"properties":{"record_id":"REG-EXTRACT-005","source_type":"Hospital Registry","source_name":"NCRP Supplementary Table S1","study_or_registry":"iutld_pha_24.0003 supplementary table","hospital":"Patna Medical College Hospital","city":"Patna","state":"Bihar","icd10":"C45","meso_type":"All","case_count":1,"year_start":2012,"year_end":2023,"latitude":"","longitude":"","catchment_km":120,"provenance_url":"https://doi.org/10.5588/pha.24.0003","notes":"Auto-extracted row, verify manually before publication"}},{"type":"Feature","geometry":{"type":"Point","coordinates":[85.3131,25.0961]},"properties":{"record_id":"REG-EXTRACT-006","source_type":"Hospital Registry","source_name":"NCRP Supplementary Table S1","study_or_registry":"iutld_pha_24.0003 supplementary table","hospital":"Homi Bhaba Cancer Hospital and Research Centre","city":"Muzaffarpur","state":"Bihar","icd10":"C45","meso_type":"All","case_count":0,"year_start":2012,"year_end":2023,"latitude":"","longitude":"","catchment_km":120,"provenance_url":"https://doi.org/10.5588/pha.24.0003","notes":"Auto-extracted row, verify manually before publication"}},{"type":"Feature","geometry":{"type":"Point","coordinates":[81.8661,21.2787]},"properties":{"record_id":"REG-EXTRACT-007","source_type":"Hospital Registry","source_name":"NCRP Supplementary Table S1","study_or_registry":"iutld_pha_24.0003 supplementary table","hospital":"All India Institute of Medical Sciences","city":"Raipur","state":"Chhattisgarh","icd10":"C45","meso_type":"All","case_count":6,"year_start":2012,"year_end":2023,"latitude":"","longitude":"","catchment_km":120,"provenance_url":"https://doi.org/10.5588/pha.24.0003","notes":"Auto-extracted row, verify manually before publication"}},{"type":"Feature","geometry":{"type":"Point","coordinates":[81.8661,21.2787]},"properties":{"record_id":"REG-EXTRACT-008","source_type":"Hospital Registry","source_name":"NCRP Supplementary Table S1","study_or_registry":"iutld_pha_24.0003 supplementary table","hospital":"Dr Bhimrao Ambedkar Memorial Hospital","city":"Raipur","state":"Chhattisgarh","icd10":"C45","meso_type":"All","case_count":1061,"year_start":2012,"year_end":2023,"latitude":"","longitude":"","catchment_km":120,"provenance_url":"https://doi.org/10.5588/pha.24.0003","notes":"Auto-extracted row, verify manually before publication"}},{"type":"Feature","geometry":{"type":"Point","coordinates":[74.124,15.2993]},"properties":{"record_id":"REG-EXTRACT-009","source_type":"Hospital Registry","source_name":"NCRP Supplementary Table S1","study_or_registry":"iutld_pha_24.0003 supplementary table","hospital":"Goa Medical College","city":"","state":"Goa","icd10":"C45","meso_type":"All","case_count":6,"year_start":2012,"year_end":2023,"latitude":"","longitude":"","catchment_km":120,"provenance_url":"https://doi.org/10.5588/pha.24.0003","notes":"Auto-extracted row, verify manually before publication"}},{"type":"Feature","geometry":{"type":"Point","coordinates":[71.1924,22.2587]},"properties":{"record_id":"REG-EXTRACT-010","source_type":"Hospital Registry","source_name":"NCRP Supplementary Table S1","study_or_registry":"iutld_pha_24.0003 supplementary table","hospital":"Guru Gobind Singh Hospital","city":"Jamnagar","state":"Gujarat","icd10":"C45","meso_type":"All","case_count":5,"year_start":2012,"year_end":2023,"latitude":"","longitude":"","catchment_km":120,"provenance_url":"https://doi.org/10.5588/pha.24.0003","notes":"Auto-extracted row, verify manually before publication"}},{"type":"Feature","geometry":{"type":"Point","coordinates":[71.1924,22.2587]},"properties":{"record_id":"REG-EXTRACT-011","source_type":"Hospital Registry","source_name":"NCRP Supplementary Table S1","study_or_registry":"iutld_pha_24.0003 supplementary table","hospital":"Sir Sayajirao General Hospital","city":"Vadodara","state":"Gujarat","icd10":"C45","meso_type":"All","case_count":13,"year_start":2012,"year_end":2023,"latitude":"","longitude":"","catchment_km":120,"provenance_url":"https://doi.org/10.5588/pha.24.0003","notes":"Auto-extracted row, verify manually before publication"}},{"type":"Feature","geometry":{"type":"Point","coordinates":[71.1924,22.2587]},"properties":{"record_id":"REG-EXTRACT-012","source_type":"Hospital Registry","source_name":"NCRP Supplementary Table S1","study_or_registry":"iutld_pha_24.0003 supplementary table","hospital":"Gujarat Cancer and Research Centre","city":"Ahmedabad","state":"Gujarat","icd10":"C45","meso_type":"All","case_count":303,"year_start":2012,"year_end":2023,"latitude":"","longitude":"","catchment_km":120,"provenance_url":"https://doi.org/10.5588/pha.24.0003","notes":"Auto-extracted row, verify manually before publication"}},{"type":"Feature","geometry":{"type":"Point","coordinates":[71.1924,22.2587]},"properties":{"record_id":"REG-EXTRACT-013","source_type":"Hospital Registry","source_name":"NCRP Supplementary Table S1","study_or_registry":"iutld_pha_24.0003 supplementary table","hospital":"GMERS Medical College and Hospital Navsari","city":"","state":"Gujarat","icd10":"C45","meso_type":"All","case_count":0,"year_start":2012,"year_end":2023,"latitude":"","longitude":"","catchment_km":120,"provenance_url":"https://doi.org/10.5588/pha.24.0003","notes":"Auto-extracted row, verify manually before publication"}},{"type":"Feature","geometry":{"type":"Point","coordinates":[71.1924,22.2587]},"properties":{"record_id":"REG-EXTRACT-014","source_type":"Hospital Registry","source_name":"NCRP Supplementary Table S1","study_or_registry":"iutld_pha_24.0003 supplementary table","hospital":"Sardar Vallabhai Patel Institute of Medical and Research","city":"Ahmedabad","state":"Gujarat","icd10":"C45","meso_type":"All","case_count":2,"year_start":2012,"year_end":2023,"latitude":"","longitude":"","catchment_km":120,"provenance_url":"https://doi.org/10.5588/pha.24.0003","notes":"Auto-extracted row, verify manually before publication"}},{"type":"Feature","geometry":{"type":"Point","coordinates":[71.1924,22.2587]},"properties":{"record_id":"REG-EXTRACT-015","source_type":"Hospital Registry","source_name":"NCRP Supplementary Table S1","study_or_registry":"iutld_pha_24.0003 supplementary table","hospital":"Sir Takht Sinhji Hospital","city":"Bhavnagar","state":"Gujarat","icd10":"C45","meso_type":"All","case_count":3,"year_start":2012,"year_end":2023,"latitude":"","longitude":"","catchment_km":120,"provenance_url":"https://doi.org/10.5588/pha.24.0003","notes":"Auto-extracted row, verify manually before publication"}},{"type":"Feature","geometry":{"type":"Point","coordinates":[76.0856,29.0588]},"properties":{"record_id":"REG-EXTRACT-016","source_type":"Hospital Registry","source_name":"NCRP Supplementary Table S1","study_or_registry":"iutld_pha_24.0003 supplementary table","hospital":"National Cancer Institute, AIIMS","city":"Jhajjar","state":"Haryana","icd10":"C45","meso_type":"All","case_count":7,"year_start":2012,"year_end":2023,"latitude":"","longitude":"","catchment_km":120,"provenance_url":"https://doi.org/10.5588/pha.24.0003","notes":"Auto-extracted row, verify manually before publication"}},{"type":"Feature","geometry":{"type":"Point","coordinates":[76.0856,29.0588]},"properties":{"record_id":"REG-EXTRACT-017","source_type":"Hospital Registry","source_name":"NCRP Supplementary Table S1","study_or_registry":"iutld_pha_24.0003 supplementary table","hospital":"Pandit Bhagwat Dayal Sharma Post Graduate Institute of Medical Sciences","city":"Rohtak","state":"Haryana","icd10":"C45","meso_type":"All","case_count":2,"year_start":2012,"year_end":2023,"latitude":"","longitude":"","catchment_km":120,"provenance_url":"https://doi.org/10.5588/pha.24.0003","notes":"Auto-extracted row, verify manually before publication"}},{"type":"Feature","geometry":{"type":"Point","coordinates":[77.1734,31.1048]},"properties":{"record_id":"REG-EXTRACT-018","source_type":"Hospital Registry","source_name":"NCRP Supplementary Table S1","study_or_registry":"iutld_pha_24.0003 supplementary table","hospital":"Dr Rajendra Prasad Government Medical College","city":"Tanda","state":"Himachal Pradesh","icd10":"C45","meso_type":"All","case_count":2,"year_start":2012,"year_end":2023,"latitude":"","longitude":"","catchment_km":120,"provenance_url":"https://doi.org/10.5588/pha.24.0003","notes":"Auto-extracted row, verify manually before publication"}},{"type":"Feature","geometry":{"type":"Point","coordinates":[77.1734,31.1048]},"properties":{"record_id":"REG-EXTRACT-019","source_type":"Hospital Registry","source_name":"NCRP Supplementary Table S1","study_or_registry":"iutld_pha_24.0003 supplementary table","hospital":"Indira Gandhi Medical College","city":"Shimla","state":"Himachal Pradesh","icd10":"C45","meso_type":"All","case_count":1,"year_start":2012,"year_end":2023,"latitude":"","longitude":"","catchment_km":120,"provenance_url":"https://doi.org/10.5588/pha.24.0003","notes":"Auto-extracted row, verify manually before publication"}},{"type":"Feature","geometry":{"type":"Point","coordinates":[85.2799,23.6102]},"properties":{"record_id":"REG-EXTRACT-020","source_type":"Hospital Registry","source_name":"NCRP Supplementary Table S1","study_or_registry":"iutld_pha_24.0003 supplementary table","hospital":"Bokaro Steel Plant Hospital","city":"","state":"Jharkhand","icd10":"C45","meso_type":"All","case_count":1,"year_start":2012,"year_end":2023,"latitude":"","longitude":"","catchment_km":120,"provenance_url":"https://doi.org/10.5588/pha.24.0003","notes":"Auto-extracted row, verify manually before publication"}},{"type":"Feature","geometry":{"type":"Point","coordinates":[75.7139,15.3173]},"properties":{"record_id":"REG-EXTRACT-021","source_type":"Hospital Registry","source_name":"NCRP Supplementary Table S1","study_or_registry":"iutld_pha_24.0003 supplementary table","hospital":"Karnataka Institute of Medical Sciences","city":"Hubli","state":"Karnataka","icd10":"C45","meso_type":"All","case_count":10,"year_start":2012,"year_end":2023,"latitude":"","longitude":"","catchment_km":120,"provenance_url":"https://doi.org/10.5588/pha.24.0003","notes":"Auto-extracted row, verify manually before publication"}},{"type":"Feature","geometry":{"type":"Point","coordinates":[75.7139,15.3173]},"properties":{"record_id":"REG-EXTRACT-022","source_type":"Hospital Registry","source_name":"NCRP Supplementary Table S1","study_or_registry":"iutld_pha_24.0003 supplementary table","hospital":"Mysore Medical College and Research Institute and KR Hospital","city":"Mysore","state":"Karnataka","icd10":"C45","meso_type":"All","case_count":0,"year_start":2012,"year_end":2023,"latitude":"","longitude":"","catchment_km":120,"provenance_url":"https://doi.org/10.5588/pha.24.0003","notes":"Auto-extracted row, verify manually before publication"}},{"type":"Feature","geometry":{"type":"Point","coordinates":[75.7139,15.3173]},"properties":{"record_id":"REG-EXTRACT-023","source_type":"Hospital Registry","source_name":"NCRP Supplementary Table S1","study_or_registry":"iutld_pha_24.0003 supplementary table","hospital":"Kidwai Memorial Institute of Oncology","city":"Bengaluru","state":"Karnataka","icd10":"C45","meso_type":"All","case_count":1,"year_start":2012,"year_end":2023,"latitude":"","longitude":"","catchment_km":120,"provenance_url":"https://doi.org/10.5588/pha.24.0003","notes":"Auto-extracted row, verify manually before publication"}},{"type":"Feature","geometry":{"type":"Point","coordinates":[76.2711,10.8505]},"properties":{"record_id":"REG-EXTRACT-024","source_type":"Hospital Registry","source_name":"NCRP Supplementary Table S1","study_or_registry":"iutld_pha_24.0003 supplementary table","hospital":"Malabar Cancer Centre","city":"","state":"Kerala","icd10":"C45","meso_type":"All","case_count":16,"year_start":2012,"year_end":2023,"latitude":"","longitude":"","catchment_km":120,"provenance_url":"https://doi.org/10.5588/pha.24.0003","notes":"Auto-extracted row, verify manually before publication"}},{"type":"Feature","geometry":{"type":"Point","coordinates":[76.2711,10.8505]},"properties":{"record_id":"REG-EXTRACT-025","source_type":"Hospital Registry","source_name":"NCRP Supplementary Table S1","study_or_registry":"iutld_pha_24.0003 supplementary table","hospital":"T.D. Medical College Hospital Alappuzha","city":"","state":"Kerala","icd10":"C45","meso_type":"All","case_count":4,"year_start":2012,"year_end":2023,"latitude":"","longitude":"","catchment_km":120,"provenance_url":"https://doi.org/10.5588/pha.24.0003","notes":"Auto-extracted row, verify manually before publication"}},{"type":"Feature","geometry":{"type":"Point","coordinates":[76.2711,10.8505]},"properties":{"record_id":"REG-EXTRACT-026","source_type":"Hospital Registry","source_name":"NCRP Supplementary Table S1","study_or_registry":"iutld_pha_24.0003 supplementary table","hospital":"General Hospital Ernakulum","city":"","state":"Kerala","icd10":"C45","meso_type":"All","case_count":5,"year_start":2012,"year_end":2023,"latitude":"","longitude":"","catchment_km":120,"provenance_url":"https://doi.org/10.5588/pha.24.0003","notes":"Auto-extracted row, verify manually before publication"}},{"type":"Feature","geometry":{"type":"Point","coordinates":[76.2711,10.8505]},"properties":{"record_id":"REG-EXTRACT-027","source_type":"Hospital Registry","source_name":"NCRP Supplementary Table S1","study_or_registry":"iutld_pha_24.0003 supplementary table","hospital":"Govt. Medical College Hospital","city":"Kannur","state":"Kerala","icd10":"C45","meso_type":"All","case_count":1,"year_start":2012,"year_end":2023,"latitude":"","longitude":"","catchment_km":120,"provenance_url":"https://doi.org/10.5588/pha.24.0003","notes":"Auto-extracted row, verify manually before publication"}},{"type":"Feature","geometry":{"type":"Point","coordinates":[76.2711,10.8505]},"properties":{"record_id":"REG-EXTRACT-028","source_type":"Hospital Registry","source_name":"NCRP Supplementary Table S1","study_or_registry":"iutld_pha_24.0003 supplementary table","hospital":"Govt. Medical College Hospital","city":"Kollam","state":"Kerala","icd10":"C45","meso_type":"All","case_count":0,"year_start":2012,"year_end":2023,"latitude":"","longitude":"","catchment_km":120,"provenance_url":"https://doi.org/10.5588/pha.24.0003","notes":"Auto-extracted row, verify manually before publication"}},{"type":"Feature","geometry":{"type":"Point","coordinates":[76.2711,10.8505]},"properties":{"record_id":"REG-EXTRACT-029","source_type":"Hospital Registry","source_name":"NCRP Supplementary Table S1","study_or_registry":"iutld_pha_24.0003 supplementary table","hospital":"Govt. Medical College Hospital","city":"Kottayam","state":"Kerala","icd10":"C45","meso_type":"All","case_count":30,"year_start":2012,"year_end":2023,"latitude":"","longitude":"","catchment_km":120,"provenance_url":"https://doi.org/10.5588/pha.24.0003","notes":"Auto-extracted row, verify manually before publication"}},{"type":"Feature","geometry":{"type":"Point","coordinates":[78.6569,22.9734]},"properties":{"record_id":"REG-EXTRACT-030","source_type":"Hospital Registry","source_name":"NCRP Supplementary Table S1","study_or_registry":"iutld_pha_24.0003 supplementary table","hospital":"Bhopal Memorial Hospital and Research Centre","city":"","state":"Madhya Pradesh","icd10":"C45","meso_type":"All","case_count":2,"year_start":2012,"year_end":2023,"latitude":"","longitude":"","catchment_km":120,"provenance_url":"https://doi.org/10.5588/pha.24.0003","notes":"Auto-extracted row, verify manually before publication"}},{"type":"Feature","geometry":{"type":"Point","coordinates":[78.6569,22.9734]},"properties":{"record_id":"REG-EXTRACT-031","source_type":"Hospital Registry","source_name":"NCRP Supplementary Table S1","study_or_registry":"iutld_pha_24.0003 supplementary table","hospital":"AIIMS Bhopal","city":"","state":"Madhya Pradesh","icd10":"C45","meso_type":"All","case_count":7,"year_start":2012,"year_end":2023,"latitude":"","longitude":"","catchment_km":120,"provenance_url":"https://doi.org/10.5588/pha.24.0003","notes":"Auto-extracted row, verify manually before publication"}},{"type":"Feature","geometry":{"type":"Point","coordinates":[78.6569,22.9734]},"properties":{"record_id":"REG-EXTRACT-032","source_type":"Hospital Registry","source_name":"NCRP Supplementary Table S1","study_or_registry":"iutld_pha_24.0003 supplementary table","hospital":"State Cancer Institute","city":"Netaji Subhash Chandra Bose Medical College Jabalpur","state":"Madhya Pradesh","icd10":"C45","meso_type":"All","case_count":0,"year_start":2012,"year_end":2023,"latitude":"","longitude":"","catchment_km":120,"provenance_url":"https://doi.org/10.5588/pha.24.0003","notes":"Auto-extracted row, verify manually before publication"}},{"type":"Feature","geometry":{"type":"Point","coordinates":[78.6569,22.9734]},"properties":{"record_id":"REG-EXTRACT-033","source_type":"Hospital Registry","source_name":"NCRP Supplementary Table S1","study_or_registry":"iutld_pha_24.0003 supplementary table","hospital":"Shyam Shah Medical College","city":"Rewa","state":"Madhya Pradesh","icd10":"C45","meso_type":"All","case_count":4,"year_start":2012,"year_end":2023,"latitude":"","longitude":"","catchment_km":120,"provenance_url":"https://doi.org/10.5588/pha.24.0003","notes":"Auto-extracted row, verify manually before publication"}},{"type":"Feature","geometry":{"type":"Point","coordinates":[75.7139,19.7515]},"properties":{"record_id":"REG-EXTRACT-034","source_type":"Hospital Registry","source_name":"NCRP Supplementary Table S1","study_or_registry":"iutld_pha_24.0003 supplementary table","hospital":"Tata Memorial Hospital","city":"","state":"Maharashtra","icd10":"C45","meso_type":"All","case_count":262,"year_start":2012,"year_end":2023,"latitude":"","longitude":"","catchment_km":120,"provenance_url":"https://doi.org/10.5588/pha.24.0003","notes":"Auto-extracted row, verify manually before publication"}},{"type":"Feature","geometry":{"type":"Point","coordinates":[75.7139,19.7515]},"properties":{"record_id":"REG-EXTRACT-035","source_type":"Hospital Registry","source_name":"NCRP Supplementary Table S1","study_or_registry":"iutld_pha_24.0003 supplementary table","hospital":"ESIC, ODC","city":"Mumbai","state":"Maharashtra","icd10":"C45","meso_type":"All","case_count":0,"year_start":2012,"year_end":2023,"latitude":"","longitude":"","catchment_km":120,"provenance_url":"https://doi.org/10.5588/pha.24.0003","notes":"Auto-extracted row, verify manually before publication"}},{"type":"Feature","geometry":{"type":"Point","coordinates":[75.7139,19.7515]},"properties":{"record_id":"REG-EXTRACT-036","source_type":"Hospital Registry","source_name":"NCRP Supplementary Table S1","study_or_registry":"iutld_pha_24.0003 supplementary table","hospital":"Department of Radiation Oncology Cama & Albless Hospital Mumbai","city":"","state":"Maharashtra","icd10":"C45","meso_type":"All","case_count":0,"year_start":2012,"year_end":2023,"latitude":"","longitude":"","catchment_km":120,"provenance_url":"https://doi.org/10.5588/pha.24.0003","notes":"Auto-extracted row, verify manually before publication"}},{"type":"Feature","geometry":{"type":"Point","coordinates":[75.7139,19.7515]},"properties":{"record_id":"REG-EXTRACT-037","source_type":"Hospital Registry","source_name":"NCRP Supplementary Table S1","study_or_registry":"iutld_pha_24.0003 supplementary table","hospital":"Bhaba Atomic Research Centre (Hospital)","city":"","state":"Maharashtra","icd10":"C45","meso_type":"All","case_count":1,"year_start":2012,"year_end":2023,"latitude":"","longitude":"","catchment_km":120,"provenance_url":"https://doi.org/10.5588/pha.24.0003","notes":"Auto-extracted row, verify manually before publication"}},{"type":"Feature","geometry":{"type":"Point","coordinates":[91.3662,25.467]},"properties":{"record_id":"REG-EXTRACT-038","source_type":"Hospital Registry","source_name":"NCRP Supplementary Table S1","study_or_registry":"iutld_pha_24.0003 supplementary table","hospital":"North Eastern Indira Gandhi Regional Institute of Health and Medical Sciences Shilong","city":"","state":"Meghalaya","icd10":"C45","meso_type":"All","case_count":3,"year_start":2012,"year_end":2023,"latitude":"","longitude":"","catchment_km":120,"provenance_url":"https://doi.org/10.5588/pha.24.0003","notes":"Auto-extracted row, verify manually before publication"}},{"type":"Feature","geometry":{"type":"Point","coordinates":[75.3412,31.1471]},"properties":{"record_id":"REG-EXTRACT-039","source_type":"Hospital Registry","source_name":"NCRP Supplementary Table S1","study_or_registry":"iutld_pha_24.0003 supplementary table","hospital":"Rajinder Hospital","city":"Patiala","state":"Punjab","icd10":"C45","meso_type":"All","case_count":0,"year_start":2012,"year_end":2023,"latitude":"","longitude":"","catchment_km":120,"provenance_url":"https://doi.org/10.5588/pha.24.0003","notes":"Auto-extracted row, verify manually before publication"}},{"type":"Feature","geometry":{"type":"Point","coordinates":[75.3412,31.1471]},"properties":{"record_id":"REG-EXTRACT-040","source_type":"Hospital Registry","source_name":"NCRP Supplementary Table S1","study_or_registry":"iutld_pha_24.0003 supplementary table","hospital":"Homi Bhabha Cancer Hospital","city":"Sangrur","state":"Punjab","icd10":"C45","meso_type":"All","case_count":2,"year_start":2012,"year_end":2023,"latitude":"","longitude":"","catchment_km":120,"provenance_url":"https://doi.org/10.5588/pha.24.0003","notes":"Auto-extracted row, verify manually before publication"}},{"type":"Feature","geometry":{"type":"Point","coordinates":[75.3412,31.1471]},"properties":{"record_id":"REG-EXTRACT-041","source_type":"Hospital Registry","source_name":"NCRP Supplementary Table S1","study_or_registry":"iutld_pha_24.0003 supplementary table","hospital":"Homi Bhabha Cancer Hospital and Research Centre","city":"Mullanpur","state":"Punjab","icd10":"C45","meso_type":"All","case_count":0,"year_start":2012,"year_end":2023,"latitude":"","longitude":"","catchment_km":120,"provenance_url":"https://doi.org/10.5588/pha.24.0003","notes":"Auto-extracted row, verify manually before publication"}},{"type":"Feature","geometry":{"type":"Point","coordinates":[74.2179,27.0238]},"properties":{"record_id":"REG-EXTRACT-042","source_type":"Hospital Registry","source_name":"NCRP Supplementary Table S1","study_or_registry":"iutld_pha_24.0003 supplementary table","hospital":"Sawai Man Singh Hospital","city":"Jaipur","state":"Rajasthan","icd10":"C45","meso_type":"All","case_count":0,"year_start":2012,"year_end":2023,"latitude":"","longitude":"","catchment_km":120,"provenance_url":"https://doi.org/10.5588/pha.24.0003","notes":"Auto-extracted row, verify manually before publication"}},{"type":"Feature","geometry":{"type":"Point","coordinates":[74.2179,27.0238]},"properties":{"record_id":"REG-EXTRACT-043","source_type":"Hospital Registry","source_name":"NCRP Supplementary Table S1","study_or_registry":"iutld_pha_24.0003 supplementary table","hospital":"Dr Sampurna Nand Medical College and Mathuradas Mathur Hospital","city":"Jodhpur","state":"Rajasthan","icd10":"C45","meso_type":"All","case_count":2,"year_start":2012,"year_end":2023,"latitude":"","longitude":"","catchment_km":120,"provenance_url":"https://doi.org/10.5588/pha.24.0003","notes":"Auto-extracted row, verify manually before publication"}},{"type":"Feature","geometry":{"type":"Point","coordinates":[74.2179,27.0238]},"properties":{"record_id":"REG-EXTRACT-044","source_type":"Hospital Registry","source_name":"NCRP Supplementary Table S1","study_or_registry":"iutld_pha_24.0003 supplementary table","hospital":"Govt Medical Hospital","city":"Kota","state":"Rajasthan","icd10":"C45","meso_type":"All","case_count":0,"year_start":2012,"year_end":2023,"latitude":"","longitude":"","catchment_km":120,"provenance_url":"https://doi.org/10.5588/pha.24.0003","notes":"Auto-extracted row, verify manually before publication"}},{"type":"Feature","geometry":{"type":"Point","coordinates":[74.2179,27.0238]},"properties":{"record_id":"REG-EXTRACT-045","source_type":"Hospital Registry","source_name":"NCRP Supplementary Table S1","study_or_registry":"iutld_pha_24.0003 supplementary table","hospital":"Acharya Tulsi Cancer Hospital and Research Institute","city":"","state":"Rajasthan","icd10":"C45","meso_type":"All","case_count":38,"year_start":2012,"year_end":2023,"latitude":"","longitude":"","catchment_km":120,"provenance_url":"https://doi.org/10.5588/pha.24.0003","notes":"Auto-extracted row, verify manually before publication"}},{"type":"Feature","geometry":{"type":"Point","coordinates":[78.6569,11.1271]},"properties":{"record_id":"REG-EXTRACT-046","source_type":"Hospital Registry","source_name":"NCRP Supplementary Table S1","study_or_registry":"iutld_pha_24.0003 supplementary table","hospital":"TNCRP- Govt. Rajiv Gandhi General Hospital","city":"Chennai","state":"Tamil Nadu","icd10":"C45","meso_type":"All","case_count":221,"year_start":2012,"year_end":2023,"latitude":"","longitude":"","catchment_km":120,"provenance_url":"https://doi.org/10.5588/pha.24.0003","notes":"Auto-extracted row, verify manually before publication"}},{"type":"Feature","geometry":{"type":"Point","coordinates":[78.6569,11.1271]},"properties":{"record_id":"REG-EXTRACT-063","source_type":"Hospital Registry","source_name":"NCRP Supplementary Table S1","study_or_registry":"iutld_pha_24.0003 supplementary table","hospital":"Command Hospital Chennai","city":"","state":"Tamil Nadu","icd10":"C45","meso_type":"All","case_count":9,"year_start":2012,"year_end":2023,"latitude":"","longitude":"","catchment_km":120,"provenance_url":"https://doi.org/10.5588/pha.24.0003","notes":"Auto-extracted row, verify manually before publication"}},{"type":"Feature","geometry":{"type":"Point","coordinates":[78.6569,11.1271]},"properties":{"record_id":"REG-EXTRACT-064","source_type":"Hospital Registry","source_name":"NCRP Supplementary Table S1","study_or_registry":"iutld_pha_24.0003 supplementary table","hospital":"Coimbatore Medical College Hospital","city":"","state":"Tamil Nadu","icd10":"C45","meso_type":"All","case_count":9,"year_start":2012,"year_end":2023,"latitude":"","longitude":"","catchment_km":120,"provenance_url":"https://doi.org/10.5588/pha.24.0003","notes":"Auto-extracted row, verify manually before publication"}},{"type":"Feature","geometry":{"type":"Point","coordinates":[80.9462,26.8467]},"properties":{"record_id":"REG-EXTRACT-065","source_type":"Hospital Registry","source_name":"NCRP Supplementary Table S1","study_or_registry":"iutld_pha_24.0003 supplementary table","hospital":"Kalyan Singh Super Speciality Cancer Institute Lucknow","city":"","state":"Uttar Pradesh","icd10":"C45","meso_type":"All","case_count":0,"year_start":2012,"year_end":2023,"latitude":"","longitude":"","catchment_km":120,"provenance_url":"https://doi.org/10.5588/pha.24.0003","notes":"Auto-extracted row, verify manually before publication"}},{"type":"Feature","geometry":{"type":"Point","coordinates":[80.9462,26.8467]},"properties":{"record_id":"REG-EXTRACT-066","source_type":"Hospital Registry","source_name":"NCRP Supplementary Table S1","study_or_registry":"iutld_pha_24.0003 supplementary table","hospital":"Institute of Medical Sciences, Banaras Hindu University","city":"Varanasi","state":"Uttar Pradesh","icd10":"C45","meso_type":"All","case_count":0,"year_start":2012,"year_end":2023,"latitude":"","longitude":"","catchment_km":120,"provenance_url":"https://doi.org/10.5588/pha.24.0003","notes":"Auto-extracted row, verify manually before publication"}},{"type":"Feature","geometry":{"type":"Point","coordinates":[80.9462,26.8467]},"properties":{"record_id":"REG-EXTRACT-067","source_type":"Hospital Registry","source_name":"NCRP Supplementary Table S1","study_or_registry":"iutld_pha_24.0003 supplementary table","hospital":"Mahamana Pandit Madan Mohan Malviya Cancer Centre","city":"Varanasi","state":"Uttar Pradesh","icd10":"C45","meso_type":"All","case_count":42,"year_start":2012,"year_end":2023,"latitude":"","longitude":"","catchment_km":120,"provenance_url":"https://doi.org/10.5588/pha.24.0003","notes":"Auto-extracted row, verify manually before publication"}},{"type":"Feature","geometry":{"type":"Point","coordinates":[80.9462,26.8467]},"properties":{"record_id":"REG-EXTRACT-068","source_type":"Hospital Registry","source_name":"NCRP Supplementary Table S1","study_or_registry":"iutld_pha_24.0003 supplementary table","hospital":"Jawaharlal Medical College, AMU","city":"Alighar","state":"Uttar Pradesh","icd10":"C45","meso_type":"All","case_count":0,"year_start":2012,"year_end":2023,"latitude":"","longitude":"","catchment_km":120,"provenance_url":"https://doi.org/10.5588/pha.24.0003","notes":"Auto-extracted row, verify manually before publication"}},{"type":"Feature","geometry":{"type":"Point","coordinates":[80.9462,26.8467]},"properties":{"record_id":"REG-EXTRACT-069","source_type":"Hospital Registry","source_name":"NCRP Supplementary Table S1","study_or_registry":"iutld_pha_24.0003 supplementary table","hospital":"Lala Lajpat Rai Memorial College","city":"Meerut","state":"Uttar Pradesh","icd10":"C45","meso_type":"All","case_count":0,"year_start":2012,"year_end":2023,"latitude":"","longitude":"","catchment_km":120,"provenance_url":"https://doi.org/10.5588/pha.24.0003","notes":"Auto-extracted row, verify manually before publication"}},{"type":"Feature","geometry":{"type":"Point","coordinates":[87.855,22.9868]},"properties":{"record_id":"REG-EXTRACT-070","source_type":"Hospital Registry","source_name":"NCRP Supplementary Table S1","study_or_registry":"iutld_pha_24.0003 supplementary table","hospital":"Chittaranjan National cancer institute","city":"","state":"West Bengal","icd10":"C45","meso_type":"All","case_count":13,"year_start":2012,"year_end":2023,"latitude":"","longitude":"","catchment_km":120,"provenance_url":"https://doi.org/10.5588/pha.24.0003","notes":"Auto-extracted row, verify manually before publication"}},{"type":"Feature","geometry":{"type":"Point","coordinates":[87.855,22.9868]},"properties":{"record_id":"REG-EXTRACT-071","source_type":"Hospital Registry","source_name":"NCRP Supplementary Table S1","study_or_registry":"iutld_pha_24.0003 supplementary table","hospital":"Command Hospital","city":"","state":"West Bengal","icd10":"C45","meso_type":"All","case_count":0,"year_start":2012,"year_end":2023,"latitude":"","longitude":"","catchment_km":120,"provenance_url":"https://doi.org/10.5588/pha.24.0003","notes":"Auto-extracted row, verify manually before publication"}},{"type":"Feature","geometry":{"type":"Point","coordinates":[87.855,22.9868]},"properties":{"record_id":"REG-EXTRACT-072","source_type":"Hospital Registry","source_name":"NCRP Supplementary Table S1","study_or_registry":"iutld_pha_24.0003 supplementary table","hospital":"ESIC Hospital","city":"Joka","state":"West Bengal","icd10":"C45","meso_type":"All","case_count":9,"year_start":2012,"year_end":2023,"latitude":"","longitude":"","catchment_km":120,"provenance_url":"https://doi.org/10.5588/pha.24.0003","notes":"Auto-extracted row, verify manually before publication"}},{"type":"Feature","geometry":{"type":"Point","coordinates":[77.1025,28.7041]},"properties":{"record_id":"REG-EXTRACT-075","source_type":"Hospital Registry","source_name":"NCRP Supplementary Table S1","study_or_registry":"iutld_pha_24.0003 supplementary table","hospital":"Lady Hardinge Medical College & Srimati Suchetra Kriplani Hospital","city":"","state":"Delhi","icd10":"C45","meso_type":"All","case_count":0,"year_start":2012,"year_end":2023,"latitude":"","longitude":"","catchment_km":120,"provenance_url":"https://doi.org/10.5588/pha.24.0003","notes":"Auto-extracted row, verify manually before publication"}},{"type":"Feature","geometry":{"type":"Point","coordinates":[77.1025,28.7041]},"properties":{"record_id":"REG-EXTRACT-076","source_type":"Hospital Registry","source_name":"NCRP Supplementary Table S1","study_or_registry":"iutld_pha_24.0003 supplementary table","hospital":"Vardhaman Mahaveer Medical College and Safdarjung Hospital","city":"","state":"Delhi","icd10":"C45","meso_type":"All","case_count":6,"year_start":2012,"year_end":2023,"latitude":"","longitude":"","catchment_km":120,"provenance_url":"https://doi.org/10.5588/pha.24.0003","notes":"Auto-extracted row, verify manually before publication"}},{"type":"Feature","geometry":{"type":"Point","coordinates":[77.1025,28.7041]},"properties":{"record_id":"REG-EXTRACT-077","source_type":"Hospital Registry","source_name":"NCRP Supplementary Table S1","study_or_registry":"iutld_pha_24.0003 supplementary table","hospital":"Delhi State Cancer Institutes","city":"","state":"Delhi","icd10":"C45","meso_type":"All","case_count":28,"year_start":2012,"year_end":2023,"latitude":"","longitude":"","catchment_km":120,"provenance_url":"https://doi.org/10.5588/pha.24.0003","notes":"Auto-extracted row, verify manually before publication"}},{"type":"Feature","geometry":{"type":"Point","coordinates":[77.1025,28.7041]},"properties":{"record_id":"REG-EXTRACT-078","source_type":"Hospital Registry","source_name":"NCRP Supplementary Table S1","study_or_registry":"iutld_pha_24.0003 supplementary table","hospital":"Kalavati Saran Childrens Hospital","city":"","state":"Delhi","icd10":"C45","meso_type":"All","case_count":0,"year_start":2012,"year_end":2023,"latitude":"","longitude":"","catchment_km":120,"provenance_url":"https://doi.org/10.5588/pha.24.0003","notes":"Auto-extracted row, verify manually before publication"}},{"type":"Feature","geometry":{"type":"Point","coordinates":[77.1025,28.7041]},"properties":{"record_id":"REG-EXTRACT-079","source_type":"Hospital Registry","source_name":"NCRP Supplementary Table S1","study_or_registry":"iutld_pha_24.0003 supplementary table","hospital":"Bhim Rao Ambedkar Rotary Cancer Centre","city":"AIIMS Delhi","state":"Delhi","icd10":"C45","meso_type":"All","case_count":32,"year_start":2012,"year_end":2023,"latitude":"","longitude":"","catchment_km":120,"provenance_url":"https://doi.org/10.5588/pha.24.0003","notes":"Auto-extracted row, verify manually before publication"}},{"type":"Feature","geometry":{"type":"Point","coordinates":[77.1025,28.7041]},"properties":{"record_id":"REG-EXTRACT-080","source_type":"Hospital Registry","source_name":"NCRP Supplementary Table S1","study_or_registry":"iutld_pha_24.0003 supplementary table","hospital":"National Institute of Tuberculosis and Lung Diseases","city":"","state":"Delhi","icd10":"C45","meso_type":"All","case_count":0,"year_start":2012,"year_end":2023,"latitude":"","longitude":"","catchment_km":120,"provenance_url":"https://doi.org/10.5588/pha.24.0003","notes":"Auto-extracted row, verify manually before publication"}},{"type":"Feature","geometry":{"type":"Point","coordinates":[77.1025,28.7041]},"properties":{"record_id":"REG-EXTRACT-081","source_type":"Hospital Registry","source_name":"NCRP Supplementary Table S1","study_or_registry":"iutld_pha_24.0003 supplementary table","hospital":"Lok Nayak Hospital","city":"","state":"Delhi","icd10":"C45","meso_type":"All","case_count":0,"year_start":2012,"year_end":2023,"latitude":"","longitude":"","catchment_km":120,"provenance_url":"https://doi.org/10.5588/pha.24.0003","notes":"Auto-extracted row, verify manually before publication"}},{"type":"Feature","geometry":{"type":"Point","coordinates":[76.5762,33.7782]},"properties":{"record_id":"REG-EXTRACT-082","source_type":"Hospital Registry","source_name":"NCRP Supplementary Table S1","study_or_registry":"iutld_pha_24.0003 supplementary table","hospital":"Government Medical College","city":"Jammu","state":"Jammu and Kashmir","icd10":"C45","meso_type":"All","case_count":6,"year_start":2012,"year_end":2023,"latitude":"","longitude":"","catchment_km":120,"provenance_url":"https://doi.org/10.5588/pha.24.0003","notes":"Auto-extracted row, verify manually before publication"}},{"type":"Feature","geometry":{"type":"Point","coordinates":[76.5762,33.7782]},"properties":{"record_id":"REG-EXTRACT-083","source_type":"Hospital Registry","source_name":"NCRP Supplementary Table S1","study_or_registry":"iutld_pha_24.0003 supplementary table","hospital":"Govt Medical College, Karanagar","city":"Srinagar","state":"Jammu and Kashmir","icd10":"C45","meso_type":"All","case_count":3,"year_start":2012,"year_end":2023,"latitude":"","longitude":"","catchment_km":120,"provenance_url":"https://doi.org/10.5588/pha.24.0003","notes":"Auto-extracted row, verify manually before publication"}},{"type":"Feature","geometry":{"type":"Point","coordinates":[78.6569,22.9734]},"properties":{"record_id":"REG-PBCR-IND-2024","source_type":"PBCR","source_name":"NCDIR PBCR Report","study_or_registry":"Mathur et al 2025 JAMA Oncology","hospital":"PBCR Aggregated Regions (43 registries)","city":"Multiple cities","state":"","icd10":"C45","meso_type":"All","case_count":0,"year_start":2015,"year_end":2019,"latitude":"22.9734","longitude":"78.6569","catchment_km":0,"provenance_url":"https://ncdirindia.org/All_Reports/PBCR_Annexures/Default.aspx","notes":"Use scripts to split per PBCR registry area"}},{"type":"Feature","geometry":{"type":"Point","coordinates":[76.0856,29.0588]},"properties":{"record_id":"LIT-PMID-41710678","source_type":"NCBI Literature","source_name":"PubMed/PMC","pmid":"41710678","pmcid":"PMC11320099","title":"Malignant Pleural Mesothelioma in an Asbestos Industry Worker: A Posthumous Case Report from Haryana, India.","hospital":"","city":"","state":"Haryana","icd10":"C45","meso_type":"All","case_count":2,"year_start":2025,"year_end":2025,"latitude":"","longitude":"","catchment_km":90,"provenance_url":"https://pmc.ncbi.nlm.nih.gov/articles/PMC11320099/","notes":"doi:10.4103/ijoem.ijoem_355_24"}},{"type":"Feature","geometry":{"type":"Point","coordinates":[87.855,22.9868]},"properties":{"record_id":"LIT-PMID-41000262","source_type":"NCBI Literature","source_name":"PubMed/PMC","pmid":"41000262","pmcid":"PMC6204411","title":"Challenges in Identifying and Diagnosing Asbestos-Related Diseases in Emerging Economies: A Global Health Perspective.","hospital":"","city":"Kolkata","state":"West Bengal","icd10":"C45","meso_type":"All","case_count":1,"year_start":2025,"year_end":2025,"latitude":"","longitude":"","catchment_km":90,"provenance_url":"https://pmc.ncbi.nlm.nih.gov/articles/PMC6204411/","notes":"doi:10.21037/tlcr.2018.04.09"}},{"type":"Feature","geometry":{"type":"Point","coordinates":[77.1025,28.7041]},"properties":{"record_id":"LIT-PMID-40642715","source_type":"NCBI Literature","source_name":"PubMed/PMC","pmid":"40642715","pmcid":"PMC10990617","title":"Medical Thoracoscopy in Malignant Pleural Effusion.","hospital":"Pulmonary Medicine, Veer Surendra Sai Institute","city":"Delhi","state":"Delhi","icd10":"C45","meso_type":"All","case_count":87,"year_start":2025,"year_end":2025,"latitude":"","longitude":"","catchment_km":90,"provenance_url":"https://pmc.ncbi.nlm.nih.gov/articles/PMC10990617/","notes":"doi:10.7759/cureus.85707"}},{"type":"Feature","geometry":{"type":"Point","coordinates":[71.1924,22.2587]},"properties":{"record_id":"LIT-PMID-40520135","source_type":"NCBI Literature","source_name":"PubMed/PMC","pmid":"40520135","pmcid":"PMC12143244","title":"Work‑Related Migration to the Alang Ship‑Breaking Industry from Other Parts of India: An Overview of Health‑Related Issues.","hospital":"","city":"","state":"Gujarat","icd10":"C45","meso_type":"All","case_count":1,"year_start":2025,"year_end":2025,"latitude":"","longitude":"","catchment_km":90,"provenance_url":"https://pmc.ncbi.nlm.nih.gov/articles/PMC12143244/","notes":"doi:10.1136/OEM-2023-EPICOH.238"}},{"type":"Feature","geometry":{"type":"Point","coordinates":[87.855,22.9868]},"properties":{"record_id":"LIT-PMID-40463607","source_type":"NCBI Literature","source_name":"PubMed/PMC","pmid":"40463607","pmcid":"PMC5125323","title":"Challenging case of pleuropericardial effusion: Primary extraskeletal Ewing's sarcoma masquerading as tubercular pericarditis.","hospital":"Pulmonologist, Command Hospital","city":"Kolkata","state":"West Bengal","icd10":"C45","meso_type":"All","case_count":1,"year_start":2025,"year_end":2025,"latitude":"","longitude":"","catchment_km":90,"provenance_url":"https://pmc.ncbi.nlm.nih.gov/articles/PMC5125323/","notes":"doi:10.1111/1759-7714.12347"}},{"type":"Feature","geometry":{"type":"Point","coordinates":[74.2179,27.0238]},"properties":{"record_id":"LIT-PMID-40337057","source_type":"NCBI Literature","source_name":"PubMed/PMC","pmid":"40337057","pmcid":"PMC1746855","title":"Spectrum of Thoracic Diseases (Benign and Malignant) in North Western India: A Study of 2527 Cases.","hospital":"Surgical Oncology, SMS Medical College","city":"Jaipur","state":"Rajasthan","icd10":"C45","meso_type":"All","case_count":2527,"year_start":2025,"year_end":2025,"latitude":"","longitude":"","catchment_km":90,"provenance_url":"https://pmc.ncbi.nlm.nih.gov/articles/PMC1746855/","notes":"doi:10.1136/thx.2010.137000"}},{"type":"Feature","geometry":{"type":"Point","coordinates":[80.9462,26.8467]},"properties":{"record_id":"LIT-PMID-40337050","source_type":"NCBI Literature","source_name":"PubMed/PMC","pmid":"40337050","pmcid":"PMC10284732","title":"The INDEPSO-ISPSM Consensus on Peritoneal Malignancies-Methodology.","hospital":"Surgical Oncology, Upkar Hospital","city":"Varanasi","state":"Uttar Pradesh","icd10":"C45","meso_type":"All","case_count":1,"year_start":2025,"year_end":2025,"latitude":"","longitude":"","catchment_km":90,"provenance_url":"https://pmc.ncbi.nlm.nih.gov/articles/PMC10284732/","notes":"doi:10.1007/s13193-023-01727-7"}},{"type":"Feature","geometry":{"type":"Point","coordinates":[74.2179,27.0238]},"properties":{"record_id":"LIT-PMID-40003441","source_type":"NCBI Literature","source_name":"PubMed/PMC","pmid":"40003441","pmcid":"PMC11760227","title":"Marble Waste Dump Yard in Rajasthan, India Revealed as a Potential Asbestos Exposure Hazard.","hospital":"","city":"","state":"Rajasthan","icd10":"C45","meso_type":"All","case_count":1,"year_start":2025,"year_end":2025,"latitude":"","longitude":"","catchment_km":90,"provenance_url":"https://pmc.ncbi.nlm.nih.gov/articles/PMC11760227/","notes":"doi:10.1101/2024.10.21.24315894"}},{"type":"Feature","geometry":{"type":"Point","coordinates":[85.2799,23.6102]},"properties":{"record_id":"LIT-PMID-39867168","source_type":"NCBI Literature","source_name":"PubMed/PMC","pmid":"39867168","pmcid":"PMC5497111","title":"Understanding exposure risk using soil testing and GIS around an abandoned asbestos mine.","hospital":"Tata Institute","city":"","state":"Jharkhand","icd10":"C45","meso_type":"All","case_count":1,"year_start":2025,"year_end":2025,"latitude":"","longitude":"","catchment_km":90,"provenance_url":"https://pmc.ncbi.nlm.nih.gov/articles/PMC5497111/","notes":"doi:10.1016/j.healthpol.2019.02.001"}},{"type":"Feature","geometry":{"type":"Point","coordinates":[77.1025,28.7041]},"properties":{"record_id":"LIT-PMID-39677167","source_type":"NCBI Literature","source_name":"PubMed/PMC","pmid":"39677167","pmcid":"PMC3734959","title":"Cytoreductive Surgery and Hyperthermic Intraperitoneal Chemotherapy for Peritoneal Mesothelioma: Outcomes From a Tertiary Cancer Care Center in India.","hospital":"Surgical Oncology, All India Institute","city":"New Delhi","state":"Delhi","icd10":"C45","meso_type":"All","case_count":15,"year_start":2024,"year_end":2024,"latitude":"","longitude":"","catchment_km":90,"provenance_url":"https://pmc.ncbi.nlm.nih.gov/articles/PMC3734959/","notes":"doi:10.7759/cureus.73658"}},{"type":"Feature","geometry":{"type":"Point","coordinates":[76.2711,10.8505]},"properties":{"record_id":"LIT-PMID-38409016","source_type":"NCBI Literature","source_name":"PubMed/PMC","pmid":"38409016","pmcid":"PMC5740834","title":"Testicular mesothelioma disguised as hydrocele: a case report.","hospital":"VPS Lakeshore Hospital","city":"","state":"Kerala","icd10":"C45","meso_type":"All","case_count":1,"year_start":2024,"year_end":2024,"latitude":"","longitude":"","catchment_km":90,"provenance_url":"https://pmc.ncbi.nlm.nih.gov/articles/PMC5740834/","notes":"doi:10.3390/uro2040031"}},{"type":"Feature","geometry":{"type":"Point","coordinates":[80.9462,26.8467]},"properties":{"record_id":"LIT-PMID-38515807","source_type":"NCBI Literature","source_name":"PubMed/PMC","pmid":"38515807","pmcid":"PMC4112850","title":"Banning asbestos in talcum powder: Time for action in India.","hospital":"ICMR- National Institute","city":"","state":"Uttar Pradesh","icd10":"C45","meso_type":"All","case_count":1,"year_start":2023,"year_end":2023,"latitude":"","longitude":"","catchment_km":90,"provenance_url":"https://pmc.ncbi.nlm.nih.gov/articles/PMC4112850/","notes":"doi:10.20529/IJME.2019.026"}},{"type":"Feature","geometry":{"type":"Point","coordinates":[77.1025,28.7041]},"properties":{"record_id":"LIT-PMID-37359063","source_type":"NCBI Literature","source_name":"PubMed/PMC","pmid":"37359063","pmcid":"PMC10166626","title":"Analysis of the Indian Government's position on the use of asbestos and its health effects.","hospital":"","city":"New Delhi","state":"Delhi","icd10":"C45","meso_type":"All","case_count":1,"year_start":2023,"year_end":2023,"latitude":"","longitude":"","catchment_km":90,"provenance_url":"https://pmc.ncbi.nlm.nih.gov/articles/PMC10166626/","notes":"doi:10.5588/pha.23.0013"}},{"type":"Feature","geometry":{"type":"Point","coordinates":[74.2179,27.0238]},"properties":{"record_id":"LIT-PMID-34673582","source_type":"NCBI Literature","source_name":"PubMed/PMC","pmid":"34673582","pmcid":"","title":"Malignant mesothelioma: A clinicopathological study of 76 cases with emphasis on immunohistochemical evaluation along with review of the literature.","hospital":"Pathology, Geetanjali Medical College","city":"","state":"Rajasthan","icd10":"C45","meso_type":"All","case_count":76,"year_start":2021,"year_end":2021,"latitude":"","longitude":"","catchment_km":90,"provenance_url":"https://pubmed.ncbi.nlm.nih.gov/34673582/","notes":"doi:10.4103/IJPM.IJPM_617_20"}},{"type":"Feature","geometry":{"type":"Point","coordinates":[77.1025,28.7041]},"properties":{"record_id":"LIT-PMID-34568227","source_type":"NCBI Literature","source_name":"PubMed/PMC","pmid":"34568227","pmcid":"PMC3986384","title":"Real-World Experience in Toxicity with Bevacizumab in Indian Cancer Patients.","hospital":"Medical Oncology, Max Super Specilaity Hospital","city":"New Delhi","state":"Delhi","icd10":"C45","meso_type":"All","case_count":41,"year_start":2021,"year_end":2021,"latitude":"","longitude":"","catchment_km":90,"provenance_url":"https://pmc.ncbi.nlm.nih.gov/articles/PMC3986384/","notes":"doi:10.1055/s-0041-1729445"}},{"type":"Feature","geometry":{"type":"Point","coordinates":[77.1025,28.7041]},"properties":{"record_id":"LIT-PMID-34090452","source_type":"NCBI Literature","source_name":"PubMed/PMC","pmid":"34090452","pmcid":"PMC7137266","title":"Feasibility and outcomes of cytoreductive surgery and HIPEC for peritoneal surface malignancies in low- and middle-income countries: a single-center experience of 232 cases.","hospital":"Surgical Oncology, Dr. BRA-IRCH, AIIMS","city":"New Delhi","state":"Delhi","icd10":"C45","meso_type":"All","case_count":232,"year_start":2021,"year_end":2021,"latitude":"","longitude":"","catchment_km":90,"provenance_url":"https://pmc.ncbi.nlm.nih.gov/articles/PMC7137266/","notes":"doi:10.1186/s12957-020-01837-4"}},{"type":"Feature","geometry":{"type":"Point","coordinates":[71.1924,22.2587]},"properties":{"record_id":"LIT-PMID-33316798","source_type":"NCBI Literature","source_name":"PubMed/PMC","pmid":"33316798","pmcid":"","title":"Role of Cytology in the Current Guidelines for Malignant Mesothelioma: Largest Study from India.","hospital":"Research Institute","city":"Ahmedabad","state":"Gujarat","icd10":"C45","meso_type":"All","case_count":128,"year_start":2021,"year_end":2021,"latitude":"","longitude":"","catchment_km":90,"provenance_url":"https://pubmed.ncbi.nlm.nih.gov/33316798/","notes":"doi:10.1159/000512011"}},{"type":"Feature","geometry":{"type":"Point","coordinates":[75.3412,31.1471]},"properties":{"record_id":"LIT-PMID-33189965","source_type":"NCBI Literature","source_name":"PubMed/PMC","pmid":"33189965","pmcid":"","title":"Paratesticular tumors. A clinicopathological study from a single tertiary hospital in North India.","hospital":"Pathology, Christian Medical College","city":"","state":"Punjab","icd10":"C45","meso_type":"All","case_count":27,"year_start":2021,"year_end":2021,"latitude":"","longitude":"","catchment_km":90,"provenance_url":"https://pubmed.ncbi.nlm.nih.gov/33189965/","notes":"doi:10.1016/j.anndiagpath.2020.151658"}},{"type":"Feature","geometry":{"type":"Point","coordinates":[75.7139,19.7515]},"properties":{"record_id":"LIT-PMID-32050148","source_type":"NCBI Literature","source_name":"PubMed/PMC","pmid":"32050148","pmcid":"","title":"Assessment of the future mesothelioma disease burden from past exposure to asbestos in ship recycling yards in India.","hospital":"Engineering Department, Indian Institute","city":"Mumbai","state":"Maharashtra","icd10":"C45","meso_type":"All","case_count":1,"year_start":2020,"year_end":2020,"latitude":"","longitude":"","catchment_km":90,"provenance_url":"https://pubmed.ncbi.nlm.nih.gov/32050148/","notes":"doi:10.1016/j.ijheh.2020.113478"}},{"type":"Feature","geometry":{"type":"Point","coordinates":[78.6569,11.1271]},"properties":{"record_id":"LIT-PMID-30936339","source_type":"NCBI Literature","source_name":"PubMed/PMC","pmid":"30936339","pmcid":"PMC1035151","title":"A case from India of pleural malignant mesothelioma probably due to domestic and environmental asbestos exposure: a posthumous report.","hospital":"General Surgery, Chettinad Medical College","city":"Chennai","state":"Tamil Nadu","icd10":"C45","meso_type":"All","case_count":1,"year_start":2019,"year_end":2019,"latitude":"","longitude":"","catchment_km":90,"provenance_url":"https://pmc.ncbi.nlm.nih.gov/articles/PMC1035151/","notes":"doi:10.1136/oem.47.4.281"}},{"type":"Feature","geometry":{"type":"Point","coordinates":[71.1924,22.2587]},"properties":{"record_id":"LIT-PMID-30886500","source_type":"NCBI Literature","source_name":"PubMed/PMC","pmid":"30886500","pmcid":"PMC5228654","title":"Hyperthermic Intrathoracic Chemotherapy (HITHOC) for Pleural Malignancies-Experience from Indian Centers.","hospital":"Surgical Oncology, Zydus Hospital","city":"Ahmedabad","state":"Gujarat","icd10":"C45","meso_type":"All","case_count":1,"year_start":2019,"year_end":2019,"latitude":"","longitude":"","catchment_km":90,"provenance_url":"https://pmc.ncbi.nlm.nih.gov/articles/PMC5228654/","notes":"doi:10.1097/MD.0000000000005532"}},{"type":"Feature","geometry":{"type":"Point","coordinates":[79.0193,18.1124]},"properties":{"record_id":"LIT-PMID-30604735","source_type":"NCBI Literature","source_name":"PubMed/PMC","pmid":"30604735","pmcid":"","title":"Malignant mesothelioma: A histomorphological and immunohistochemical study of 24 cases from a tertiary care hospital in Southern India.","hospital":"Pathology, Nizam's Institute","city":"Hyderabad","state":"Telangana","icd10":"C45","meso_type":"All","case_count":24,"year_start":2018,"year_end":2018,"latitude":"","longitude":"","catchment_km":90,"provenance_url":"https://pubmed.ncbi.nlm.nih.gov/30604735/","notes":"doi:10.4103/ijc.IJC_584_17"}},{"type":"Feature","geometry":{"type":"Point","coordinates":[77.1025,28.7041]},"properties":{"record_id":"LIT-PMID-27543099","source_type":"NCBI Literature","source_name":"PubMed/PMC","pmid":"27543099","pmcid":"PMC1994863","title":"Co-existing tuberculosis and malignant mesothelioma with multiple sites venous thrombosis: a case report.","hospital":"Family Medicine, Sir Gangaram Hospital","city":"New Delhi","state":"Delhi","icd10":"C45","meso_type":"All","case_count":1,"year_start":2016,"year_end":2016,"latitude":"","longitude":"","catchment_km":90,"provenance_url":"https://pmc.ncbi.nlm.nih.gov/articles/PMC1994863/","notes":"doi:10.4065/80.7.867"}},{"type":"Feature","geometry":{"type":"Point","coordinates":[75.7139,15.3173]},"properties":{"record_id":"LIT-PMID-27065706","source_type":"NCBI Literature","source_name":"PubMed/PMC","pmid":"27065706","pmcid":"PMC4399618","title":"The Initial Indian Experience with Cytoreductive Surgery and HIPEC in the Treatment of Peritoneal Metastases.","hospital":"Surgical Oncology, Fortis Hospital","city":"Bangalore","state":"Karnataka","icd10":"C45","meso_type":"All","case_count":10,"year_start":2016,"year_end":2016,"latitude":"","longitude":"","catchment_km":90,"provenance_url":"https://pmc.ncbi.nlm.nih.gov/articles/PMC4399618/","notes":"doi:10.1111/IGC.0b013e3181c50cde"}},{"type":"Feature","geometry":{"type":"Point","coordinates":[75.7139,15.3173]},"properties":{"record_id":"LIT-PMID-26903675","source_type":"NCBI Literature","source_name":"PubMed/PMC","pmid":"26903675","pmcid":"PMC1356139","title":"Anaesthetic management of extra-pleural pneumonectomy and hyperthermic intrathoracic chemotherapy procedure.","hospital":"Anaesthesiology, Manipal Hospital","city":"Bengaluru","state":"Karnataka","icd10":"C45","meso_type":"All","case_count":1,"year_start":2015,"year_end":2015,"latitude":"","longitude":"","catchment_km":90,"provenance_url":"https://pmc.ncbi.nlm.nih.gov/articles/PMC1356139/","notes":"doi:10.4103/0019-5049.171574"}},{"type":"Feature","geometry":{"type":"Point","coordinates":[85.2799,23.6102]},"properties":{"record_id":"LIT-PMID-25161804","source_type":"NCBI Literature","source_name":"PubMed/PMC","pmid":"25161804","pmcid":"PMC2074388","title":"Malignant pleural and peritoneal mesothelioma consequential to brief indirect asbestos exposure.","hospital":"Radiology, ESI Model Hospital","city":"","state":"Jharkhand","icd10":"C45","meso_type":"All","case_count":1,"year_start":2014,"year_end":2014,"latitude":"","longitude":"","catchment_km":90,"provenance_url":"https://pmc.ncbi.nlm.nih.gov/articles/PMC2074388/","notes":"doi:10.4103/2156-7514.135662"}},{"type":"Feature","geometry":{"type":"Point","coordinates":[75.7139,19.7515]},"properties":{"record_id":"LIT-PMID-25104207","source_type":"NCBI Literature","source_name":"PubMed/PMC","pmid":"25104207","pmcid":"","title":"Initial experience with hyperthermic intra peritoneal chemotherapy and cytoreductivesurgery.","hospital":"Surgical Oncology, Lilavati Hospital","city":"Mumbai","state":"Maharashtra","icd10":"C45","meso_type":"All","case_count":1,"year_start":2014,"year_end":2014,"latitude":"","longitude":"","catchment_km":90,"provenance_url":"https://pubmed.ncbi.nlm.nih.gov/25104207/","notes":"doi:10.4103/0019-509X.138304"}},{"type":"Feature","geometry":{"type":"Point","coordinates":[75.3412,31.1471]},"properties":{"record_id":"LIT-PMID-24426503","source_type":"NCBI Literature","source_name":"PubMed/PMC","pmid":"24426503","pmcid":"PMC3693390","title":"A rare case of benign multicystic peritoneal mesothelioma: a clinical dilemma.","hospital":"Surgery, Kasturba Medical College","city":"","state":"Punjab","icd10":"C45","meso_type":"All","case_count":130,"year_start":2013,"year_end":2013,"latitude":"","longitude":"","catchment_km":90,"provenance_url":"https://pmc.ncbi.nlm.nih.gov/articles/PMC3693390/","notes":"doi:10.1007/s12262-011-0314-6"}},{"type":"Feature","geometry":{"type":"Point","coordinates":[75.7139,19.7515]},"properties":{"record_id":"LIT-PMID-17119210","source_type":"NCBI Literature","source_name":"PubMed/PMC","pmid":"17119210","pmcid":"","title":"Asbestos ban in India: challenges ahead.","hospital":"Environmental Health, Lok Nayak Hospital","city":"","state":"Maharashtra","icd10":"C45","meso_type":"All","case_count":1,"year_start":2006,"year_end":2006,"latitude":"","longitude":"","catchment_km":90,"provenance_url":"https://pubmed.ncbi.nlm.nih.gov/17119210/","notes":"doi:10.1196/annals.1371.072"}},{"type":"Feature","geometry":{"type":"Point","coordinates":[77.1025,28.7041]},"properties":{"record_id":"LIT-PMID-11758993","source_type":"NCBI Literature","source_name":"PubMed/PMC","pmid":"11758993","pmcid":"","title":"Present status of asbestos mining and related health problems in India--a survey.","hospital":"Environmental Sciences, Jawaharlal Nehru University","city":"New Delhi","state":"Delhi","icd10":"C45","meso_type":"All","case_count":1,"year_start":2001,"year_end":2001,"latitude":"","longitude":"","catchment_km":90,"provenance_url":"https://pubmed.ncbi.nlm.nih.gov/11758993/","notes":"doi:10.2486/indhealth.39.309"}},{"type":"Feature","geometry":{"type":"Point","coordinates":[75.7139,15.3173]},"properties":{"record_id":"LIT-PMID-1548893","source_type":"NCBI Literature","source_name":"PubMed/PMC","pmid":"1548893","pmcid":"","title":"Primary pleural mesotheliomas in south India: a 25-year study.","hospital":"Pathology, St. John's Medical College","city":"Bangalore","state":"Karnataka","icd10":"C45","meso_type":"All","case_count":15,"year_start":1992,"year_end":1992,"latitude":"","longitude":"","catchment_km":90,"provenance_url":"https://pubmed.ncbi.nlm.nih.gov/1548893/","notes":"doi:10.1002/jso.2930490313"}},{"type":"Feature","geometry":{"type":"Point","coordinates":[78.0,22.0]},"properties":{"record_id":"COMM-EXAMPLE-001","source_type":"Community Verified","source_name":"Reviewed Community Submission","hospital":"Example Hospital Name","city":"Example City","state":"","icd10":"C45","meso_type":"All","case_count":1,"year_start":2026,"year_end":2026,"latitude":"22.0","longitude":"78.0","catchment_km":75,"provenance_url":"","review_status":"verified","notes":"Template row: replace or delete"}}]}